[{"OBJECT_NAME":"STARLINK-5210","OBJECT_ID":"2022-136AH","EPOCH":"2026-03-09T23:15:29.801952","MEAN_MOTION":15.08834611,"ECCENTRICITY":0.00013122,"INCLINATION":53.2195,"RA_OF_ASC_NODE":333.0485,"ARG_OF_PERICENTER":109.6373,"MEAN_ANOMALY":250.4761,"EPHEMERIS_TYPE":0,"CLASSIFICATION_TYPE":"U","NORAD_CAT_ID":54082,"ELEMENT_SET_NO":999,"REV_AT_EPOCH":18702,"BSTAR":-2.7081662e-5,"MEAN_MOTION_DOT":-7.19e-6,"MEAN_MOTION_DDOT":0},{"OBJECT_NAME":"CZ-6A DEB","OBJECT_ID":"2024-140RN","EPOCH":"2026-03-09T09:36:23.350464","MEAN_MOTION":14.99974811,"ECCENTRICITY":0.0047719,"INCLINATION":88.1445,"RA_OF_ASC_NODE":217.6461,"ARG_OF_PERICENTER":172.1525,"MEAN_ANOMALY":188.0467,"EPHEMERIS_TYPE":0,"CLASSIFICATION_TYPE":"U","NORAD_CAT_ID":61168,"ELEMENT_SET_NO":999,"REV_AT_EPOCH":8322,"BSTAR":0.0063622011,"MEAN_MOTION_DOT":0.00081758,"MEAN_MOTION_DDOT":0}]
